{
  "type": "FeatureCollection",
  "features": [
    {
      "type": "Feature",
      "properties": {
        "norad_id": 26766,
        "name": "INTELSAT 10 (IS-10)",
        "group": "intelsat",
        "lat": -8.66373454502418,
        "lon": -31.646833797103838,
        "alt_km": 36100.30171713691,
        "timestamp": "2025-12-24T09:46:30.662854+00:00",
        "meta_object_name": "INTELSAT 10 (IS-10)",
        "meta_object_id": "2001-019A",
        "meta_epoch": "2025-12-23T20:29:28.496256",
        "meta_mean_motion": 0.9907274,
        "meta_eccentricity": 0.00078795,
        "meta_inclination": 8.6541,
        "meta_ra_of_asc_node": 61.0445,
        "meta_arg_of_pericenter": 229.3993,
        "meta_mean_anomaly": 200.4709,
        "meta_ephemeris_type": 0,
        "meta_classification_type": "U",
        "meta_norad_cat_id": 26766,
        "meta_element_set_no": 999,
        "meta_rev_at_epoch": 4384,
        "meta_bstar": 0,
        "meta_mean_motion_dot": -1.1e-07,
        "meta_mean_motion_ddot": 0,
        "tle_line1": "1 26766U 01019A   25357.85380204 -.00000011  00000+0  00000+0 0  9991",
        "tle_line2": "2 26766   8.6541  61.0445 0007879 229.3993 200.4709  0.99072740 43840"
      },
      "geometry": {
        "type": "Point",
        "coordinates": [
          -31.646833797103838,
          -8.66373454502418
        ]
      }
    },
    {
      "type": "Feature",
      "properties": {
        "norad_id": 26900,
        "name": "INTELSAT 902 (IS-902)",
        "group": "intelsat",
        "lat": 5.120628079266137,
        "lon": -170.31625328176278,
        "alt_km": 35781.47999825493,
        "timestamp": "2025-12-24T09:46:30.662878+00:00",
        "meta_object_name": "INTELSAT 902 (IS-902)",
        "meta_object_id": "2001-039A",
        "meta_epoch": "2025-12-15T13:09:02.081664",
        "meta_mean_motion": 1.0027087,
        "meta_eccentricity": 0.00045028,
        "meta_inclination": 5.6536,
        "meta_ra_of_asc_node": 74.0372,
        "meta_arg_of_pericenter": 189.6359,
        "meta_mean_anomaly": 327.9329,
        "meta_ephemeris_type": 0,
        "meta_classification_type": "U",
        "meta_norad_cat_id": 26900,
        "meta_element_set_no": 999,
        "meta_rev_at_epoch": 8885,
        "meta_bstar": 0,
        "meta_mean_motion_dot": -2.65e-06,
        "meta_mean_motion_ddot": 0,
        "tle_line1": "1 26900U 01039A   25349.54794076 -.00000265  00000+0  00000+0 0  9997",
        "tle_line2": "2 26900   5.6536  74.0372 0004502 189.6359 327.9329  1.00270870 88858"
      },
      "geometry": {
        "type": "Point",
        "coordinates": [
          -170.31625328176278,
          5.120628079266137
        ]
      }
    },
    {
      "type": "Feature",
      "properties": {
        "norad_id": 27380,
        "name": "INTELSAT 904 (IS-904)",
        "group": "intelsat",
        "lat": 4.4150733153252615,
        "lon": -151.5141760210255,
        "alt_km": 35787.56735858213,
        "timestamp": "2025-12-24T09:46:30.662896+00:00",
        "meta_object_name": "INTELSAT 904 (IS-904)",
        "meta_object_id": "2002-007A",
        "meta_epoch": "2025-12-23T23:15:16.270848",
        "meta_mean_motion": 1.00273356,
        "meta_eccentricity": 0.000188,
        "meta_inclination": 6.4809,
        "meta_ra_of_asc_node": 71.3034,
        "meta_arg_of_pericenter": 245.293,
        "meta_mean_anomaly": 93.4817,
        "meta_ephemeris_type": 0,
        "meta_classification_type": "U",
        "meta_norad_cat_id": 27380,
        "meta_element_set_no": 999,
        "meta_rev_at_epoch": 5000,
        "meta_bstar": 0,
        "meta_mean_motion_dot": -2.07e-06,
        "meta_mean_motion_ddot": 0,
        "tle_line1": "1 27380U 02007A   25357.96893832 -.00000207  00000+0  00000+0 0  9997",
        "tle_line2": "2 27380   6.4809  71.3034 0001880 245.2930  93.4817  1.00273356 50003"
      },
      "geometry": {
        "type": "Point",
        "coordinates": [
          -151.5141760210255,
          4.4150733153252615
        ]
      }
    },
    {
      "type": "Feature",
      "properties": {
        "norad_id": 27426,
        "name": "DIRECTV 5 (TEMPO 1)",
        "group": "intelsat",
        "lat": 3.5174585388066375,
        "lon": 129.58642264802168,
        "alt_km": 35797.62348068192,
        "timestamp": "2025-12-24T09:46:30.662910+00:00",
        "meta_object_name": "DIRECTV 5 (TEMPO 1)",
        "meta_object_id": "2002-023A",
        "meta_epoch": "2025-12-23T16:01:57.619200",
        "meta_mean_motion": 1.00271663,
        "meta_eccentricity": 0.0003261,
        "meta_inclination": 4.4282,
        "meta_ra_of_asc_node": 77.5248,
        "meta_arg_of_pericenter": 202.2662,
        "meta_mean_anomaly": 303.0349,
        "meta_ephemeris_type": 0,
        "meta_classification_type": "U",
        "meta_norad_cat_id": 27426,
        "meta_element_set_no": 999,
        "meta_rev_at_epoch": 8636,
        "meta_bstar": 0,
        "meta_mean_motion_dot": -3.8e-07,
        "meta_mean_motion_ddot": 0,
        "tle_line1": "1 27426U 02023A   25357.66802800 -.00000038  00000+0  00000+0 0  9990",
        "tle_line2": "2 27426   4.4282  77.5248 0003261 202.2662 303.0349  1.00271663 86369"
      },
      "geometry": {
        "type": "Point",
        "coordinates": [
          129.58642264802168,
          3.5174585388066375
        ]
      }
    },
    {
      "type": "Feature",
      "properties": {
        "norad_id": 27438,
        "name": "INTELSAT 905 (IS-905)",
        "group": "intelsat",
        "lat": 3.2377111710168287,
        "lon": 102.46004285889549,
        "alt_km": 35796.75654022913,
        "timestamp": "2025-12-24T09:46:30.662924+00:00",
        "meta_object_name": "INTELSAT 905 (IS-905)",
        "meta_object_id": "2002-027A",
        "meta_epoch": "2025-12-23T05:41:27.377952",
        "meta_mean_motion": 1.00273243,
        "meta_eccentricity": 0.00027491,
        "meta_inclination": 6.3102,
        "meta_ra_of_asc_node": 71.9349,
        "meta_arg_of_pericenter": 206.5226,
        "meta_mean_anomaly": 121.7385,
        "meta_ephemeris_type": 0,
        "meta_classification_type": "U",
        "meta_norad_cat_id": 27438,
        "meta_element_set_no": 999,
        "meta_rev_at_epoch": 4959,
        "meta_bstar": 0,
        "meta_mean_motion_dot": 1.12e-06,
        "meta_mean_motion_ddot": 0,
        "tle_line1": "1 27438U 02027A   25357.23712243  .00000112  00000+0  00000+0 0  9993",
        "tle_line2": "2 27438   6.3102  71.9349 0002749 206.5226 121.7385  1.00273243 49592"
      },
      "geometry": {
        "type": "Point",
        "coordinates": [
          102.46004285889549,
          3.2377111710168287
        ]
      }
    },
    {
      "type": "Feature",
      "properties": {
        "norad_id": 27445,
        "name": "GALAXY 3C (G-3C)",
        "group": "intelsat",
        "lat": 2.9895997615823626,
        "lon": 144.90999786892263,
        "alt_km": 35781.38259891203,
        "timestamp": "2025-12-24T09:46:30.662942+00:00",
        "meta_object_name": "GALAXY 3C (G-3C)",
        "meta_object_id": "2002-030A",
        "meta_epoch": "2025-12-23T19:31:44.703840",
        "meta_mean_motion": 1.00271484,
        "meta_eccentricity": 0.000111,
        "meta_inclination": 3.2897,
        "meta_ra_of_asc_node": 80.3883,
        "meta_arg_of_pericenter": 83.376,
        "meta_mean_anomaly": 126.9142,
        "meta_ephemeris_type": 0,
        "meta_classification_type": "U",
        "meta_norad_cat_id": 27445,
        "meta_element_set_no": 999,
        "meta_rev_at_epoch": 4473,
        "meta_bstar": 0,
        "meta_mean_motion_dot": -1.33e-06,
        "meta_mean_motion_ddot": 0,
        "tle_line1": "1 27445U 02030A   25357.81371185 -.00000133  00000+0  00000+0 0  9999",
        "tle_line2": "2 27445   3.2897  80.3883 0001110  83.3760 126.9142  1.00271484 44733"
      },
      "geometry": {
        "type": "Point",
        "coordinates": [
          144.90999786892263,
          2.9895997615823626
        ]
      }
    },
    {
      "type": "Feature",
      "properties": {
        "norad_id": 27513,
        "name": "INTELSAT 906 (IS-906)",
        "group": "intelsat",
        "lat": -4.0568849178735835,
        "lon": -56.13323248453506,
        "alt_km": 35762.36210688293,
        "timestamp": "2025-12-24T09:46:30.662969+00:00",
        "meta_object_name": "INTELSAT 906 (IS-906)",
        "meta_object_id": "2002-041A",
        "meta_epoch": "2025-12-23T18:34:28.015104",
        "meta_mean_motion": 1.00273398,
        "meta_eccentricity": 0.00062905,
        "meta_inclination": 5.3577,
        "meta_ra_of_asc_node": 75.1001,
        "meta_arg_of_pericenter": 202.0184,
        "meta_mean_anomaly": 158.2022,
        "meta_ephemeris_type": 0,
        "meta_classification_type": "U",
        "meta_norad_cat_id": 27513,
        "meta_element_set_no": 999,
        "meta_rev_at_epoch": 8527,
        "meta_bstar": 0,
        "meta_mean_motion_dot": 3.1e-07,
        "meta_mean_motion_ddot": 0,
        "tle_line1": "1 27513U 02041A   25357.77393536  .00000031  00000+0  00000+0 0  9992",
        "tle_line2": "2 27513   5.3577  75.1001 0006290 202.0184 158.2022  1.00273398 85270"
      },
      "geometry": {
        "type": "Point",
        "coordinates": [
          -56.13323248453506,
          -4.0568849178735835
        ]
      }
    }
  ]
}